<?xml version="1.0" encoding="UTF-8"?>
<ndm xmlns:xsi="http://www.w3.org/2001/XMLSchema-instance" xsi:noNamespaceSchemaLocation="https://sanaregistry.org/r/ndmxml_unqualified/ndmxml-2.0.0-master-2.0.xsd">
<omm id="CCSDS_OMM_VERS" version="2.0">
<header><CREATION_DATE/><ORIGINATOR/></header><body><segment><metadata><OBJECT_NAME>ONEWEB-0012</OBJECT_NAME><OBJECT_ID>2019-010A</OBJECT_ID><CENTER_NAME>EARTH</CENTER_NAME><REF_FRAME>TEME</REF_FRAME><TIME_SYSTEM>UTC</TIME_SYSTEM><MEAN_ELEMENT_THEORY>SGP4</MEAN_ELEMENT_THEORY></metadata><data><meanElements><EPOCH>2024-08-30T15:03:27.240768</EPOCH><MEAN_MOTION>13.16596486</MEAN_MOTION><ECCENTRICITY>.0001149</ECCENTRICITY><INCLINATION>87.9168</INCLINATION><RA_OF_ASC_NODE>359.3401</RA_OF_ASC_NODE><ARG_OF_PERICENTER>120.4952</ARG_OF_PERICENTER><MEAN_ANOMALY>239.6293</MEAN_ANOMALY></meanElements><tleParameters><EPHEMERIS_TYPE>0</EPHEMERIS_TYPE><CLASSIFICATION_TYPE>U</CLASSIFICATION_TYPE><NORAD_CAT_ID>44057</NORAD_CAT_ID><ELEMENT_SET_NO>999</ELEMENT_SET_NO><REV_AT_EPOCH>26530</REV_AT_EPOCH><BSTAR>.30058E-3</BSTAR><MEAN_MOTION_DOT>.128E-5</MEAN_MOTION_DOT><MEAN_MOTION_DDOT>0</MEAN_MOTION_DDOT></tleParameters></data></segment></body></omm>
<omm id="CCSDS_OMM_VERS" version="2.0">
<header><CREATION_DATE/><ORIGINATOR/></header><body><segment><metadata><OBJECT_NAME>ONEWEB-0010</OBJECT_NAME><OBJECT_ID>2019-010B</OBJECT_ID><CENTER_NAME>EARTH</CENTER_NAME><REF_FRAME>TEME</REF_FRAME><TIME_SYSTEM>UTC</TIME_SYSTEM><MEAN_ELEMENT_THEORY>SGP4</MEAN_ELEMENT_THEORY></metadata><data><meanElements><EPOCH>2024-08-30T08:22:11.763264</EPOCH><MEAN_MOTION>13.16595925</MEAN_MOTION><ECCENTRICITY>.0001846</ECCENTRICITY><INCLINATION>87.9163</INCLINATION><RA_OF_ASC_NODE>359.3748</RA_OF_ASC_NODE><ARG_OF_PERICENTER>118.2519</ARG_OF_PERICENTER><MEAN_ANOMALY>241.8798</MEAN_ANOMALY></meanElements><tleParameters><EPHEMERIS_TYPE>0</EPHEMERIS_TYPE><CLASSIFICATION_TYPE>U</CLASSIFICATION_TYPE><NORAD_CAT_ID>44058</NORAD_CAT_ID><ELEMENT_SET_NO>999</ELEMENT_SET_NO><REV_AT_EPOCH>26531</REV_AT_EPOCH><BSTAR>-.47476E-4</BSTAR><MEAN_MOTION_DOT>-.5E-7</MEAN_MOTION_DOT><MEAN_MOTION_DDOT>0</MEAN_MOTION_DDOT></tleParameters></data></segment></body></omm>
<omm id="CCSDS_OMM_VERS" version="2.0">
<header><CREATION_DATE/><ORIGINATOR/></header><body><segment><metadata><OBJECT_NAME>ONEWEB-0008</OBJECT_NAME><OBJECT_ID>2019-010C</OBJECT_ID><CENTER_NAME>EARTH</CENTER_NAME><REF_FRAME>TEME</REF_FRAME><TIME_SYSTEM>UTC</TIME_SYSTEM><MEAN_ELEMENT_THEORY>SGP4</MEAN_ELEMENT_THEORY></metadata><data><meanElements><EPOCH>2024-08-30T08:58:41.575584</EPOCH><MEAN_MOTION>13.16593231</MEAN_MOTION><ECCENTRICITY>.0001943</ECCENTRICITY><INCLINATION>87.9167</INCLINATION><RA_OF_ASC_NODE>359.3716</RA_OF_ASC_NODE><ARG_OF_PERICENTER>92.4705</ARG_OF_PERICENTER><MEAN_ANOMALY>267.6648</MEAN_ANOMALY></meanElements><tleParameters><EPHEMERIS_TYPE>0</EPHEMERIS_TYPE><CLASSIFICATION_TYPE>U</CLASSIFICATION_TYPE><NORAD_CAT_ID>44059</NORAD_CAT_ID><ELEMENT_SET_NO>999</ELEMENT_SET_NO><REV_AT_EPOCH>26543</REV_AT_EPOCH><BSTAR>-.11243E-3</BSTAR><MEAN_MOTION_DOT>-.3E-6</MEAN_MOTION_DOT><MEAN_MOTION_DDOT>0</MEAN_MOTION_DDOT></tleParameters></data></segment></body></omm>
<omm id="CCSDS_OMM_VERS" version="2.0">
<header><CREATION_DATE/><ORIGINATOR/></header><body><segment><metadata><OBJECT_NAME>ONEWEB-0007</OBJECT_NAME><OBJECT_ID>2019-010D</OBJECT_ID><CENTER_NAME>EARTH</CENTER_NAME><REF_FRAME>TEME</REF_FRAME><TIME_SYSTEM>UTC</TIME_SYSTEM><MEAN_ELEMENT_THEORY>SGP4</MEAN_ELEMENT_THEORY></metadata><data><meanElements><EPOCH>2024-08-30T10:05:41.540352</EPOCH><MEAN_MOTION>13.15561013</MEAN_MOTION><ECCENTRICITY>.0000759</ECCENTRICITY><INCLINATION>87.9075</INCLINATION><RA_OF_ASC_NODE>29.6935</RA_OF_ASC_NODE><ARG_OF_PERICENTER>89.3609</ARG_OF_PERICENTER><MEAN_ANOMALY>270.7609</MEAN_ANOMALY></meanElements><tleParameters><EPHEMERIS_TYPE>0</EPHEMERIS_TYPE><CLASSIFICATION_TYPE>U</CLASSIFICATION_TYPE><NORAD_CAT_ID>44060</NORAD_CAT_ID><ELEMENT_SET_NO>999</ELEMENT_SET_NO><REV_AT_EPOCH>26515</REV_AT_EPOCH><BSTAR>.55699E-2</BSTAR><MEAN_MOTION_DOT>.2111E-4</MEAN_MOTION_DOT><MEAN_MOTION_DDOT>0</MEAN_MOTION_DDOT></tleParameters></data></segment></body></omm>
<omm id="CCSDS_OMM_VERS" version="2.0">
<header><CREATION_DATE/><ORIGINATOR/></header><body><segment><metadata><OBJECT_NAME>ONEWEB-0006</OBJECT_NAME><OBJECT_ID>2019-010E</OBJECT_ID><CENTER_NAME>EARTH</CENTER_NAME><REF_FRAME>TEME</REF_FRAME><TIME_SYSTEM>UTC</TIME_SYSTEM><MEAN_ELEMENT_THEORY>SGP4</MEAN_ELEMENT_THEORY></metadata><data><meanElements><EPOCH>2024-08-30T10:11:25.818432</EPOCH><MEAN_MOTION>13.15549201</MEAN_MOTION><ECCENTRICITY>.0001545</ECCENTRICITY><INCLINATION>87.9063</INCLINATION><RA_OF_ASC_NODE>29.6729</RA_OF_ASC_NODE><ARG_OF_PERICENTER>103.4440</ARG_OF_PERICENTER><MEAN_ANOMALY>256.6862</MEAN_ANOMALY></meanElements><tleParameters><EPHEMERIS_TYPE>0</EPHEMERIS_TYPE><CLASSIFICATION_TYPE>U</CLASSIFICATION_TYPE><NORAD_CAT_ID>44061</NORAD_CAT_ID><ELEMENT_SET_NO>999</ELEMENT_SET_NO><REV_AT_EPOCH>26520</REV_AT_EPOCH><BSTAR>.26431E-3</BSTAR><MEAN_MOTION_DOT>.112E-5</MEAN_MOTION_DOT><MEAN_MOTION_DDOT>0</MEAN_MOTION_DDOT></tleParameters></data></segment></body></omm>
<omm id="CCSDS_OMM_VERS" version="2.0">
<header><CREATION_DATE/><ORIGINATOR/></header><body><segment><metadata><OBJECT_NAME>ONEWEB-0011</OBJECT_NAME><OBJECT_ID>2019-010F</OBJECT_ID><CENTER_NAME>EARTH</CENTER_NAME><REF_FRAME>TEME</REF_FRAME><TIME_SYSTEM>UTC</TIME_SYSTEM><MEAN_ELEMENT_THEORY>SGP4</MEAN_ELEMENT_THEORY></metadata><data><meanElements><EPOCH>2024-08-30T09:28:05.320128</EPOCH><MEAN_MOTION>13.15544401</MEAN_MOTION><ECCENTRICITY>.0001921</ECCENTRICITY><INCLINATION>87.9063</INCLINATION><RA_OF_ASC_NODE>29.6809</RA_OF_ASC_NODE><ARG_OF_PERICENTER>101.1819</ARG_OF_PERICENTER><MEAN_ANOMALY>258.9528</MEAN_ANOMALY></meanElements><tleParameters><EPHEMERIS_TYPE>0</EPHEMERIS_TYPE><CLASSIFICATION_TYPE>U</CLASSIFICATION_TYPE><NORAD_CAT_ID>44062</NORAD_CAT_ID><ELEMENT_SET_NO>999</ELEMENT_SET_NO><REV_AT_EPOCH>26519</REV_AT_EPOCH><BSTAR>.35562E-3</BSTAR><MEAN_MOTION_DOT>.147E-5</MEAN_MOTION_DOT><MEAN_MOTION_DDOT>0</MEAN_MOTION_DDOT></tleParameters></data></segment></body></omm>
<omm id="CCSDS_OMM_VERS" version="2.0">
<header><CREATION_DATE/><ORIGINATOR/></header><body><segment><metadata><OBJECT_NAME>ONEWEB-0013</OBJECT_NAME><OBJECT_ID>2020-008A</OBJECT_ID><CENTER_NAME>EARTH</CENTER_NAME><REF_FRAME>TEME</REF_FRAME><TIME_SYSTEM>UTC</TIME_SYSTEM><MEAN_ELEMENT_THEORY>SGP4</MEAN_ELEMENT_THEORY></metadata><data><meanElements><EPOCH>2024-08-30T13:11:46.619232</EPOCH><MEAN_MOTION>13.09383742</MEAN_MOTION><ECCENTRICITY>.0001658</ECCENTRICITY><INCLINATION>87.8682</INCLINATION><RA_OF_ASC_NODE>184.7420</RA_OF_ASC_NODE><ARG_OF_PERICENTER>49.7253</ARG_OF_PERICENTER><MEAN_ANOMALY>310.4018</MEAN_ANOMALY></meanElements><tleParameters><EPHEMERIS_TYPE>0</EPHEMERIS_TYPE><CLASSIFICATION_TYPE>U</CLASSIFICATION_TYPE><NORAD_CAT_ID>45131</NORAD_CAT_ID><ELEMENT_SET_NO>999</ELEMENT_SET_NO><REV_AT_EPOCH>22026</REV_AT_EPOCH><BSTAR>-.13196E-2</BSTAR><MEAN_MOTION_DOT>-.441E-5</MEAN_MOTION_DOT><MEAN_MOTION_DDOT>0</MEAN_MOTION_DDOT></tleParameters></data></segment></body></omm>
<omm id="CCSDS_OMM_VERS" version="2.0">
<header><CREATION_DATE/><ORIGINATOR/></header><body><segment><metadata><OBJECT_NAME>ONEWEB-0017</OBJECT_NAME><OBJECT_ID>2020-008B</OBJECT_ID><CENTER_NAME>EARTH</CENTER_NAME><REF_FRAME>TEME</REF_FRAME><TIME_SYSTEM>UTC</TIME_SYSTEM><MEAN_ELEMENT_THEORY>SGP4</MEAN_ELEMENT_THEORY></metadata><data><meanElements><EPOCH>2024-08-30T13:07:37.705152</EPOCH><MEAN_MOTION>13.10372683</MEAN_MOTION><ECCENTRICITY>.0001971</ECCENTRICITY><INCLINATION>87.8991</INCLINATION><RA_OF_ASC_NODE>166.7244</RA_OF_ASC_NODE><ARG_OF_PERICENTER>83.5113</ARG_OF_PERICENTER><MEAN_ANOMALY>276.6239</MEAN_ANOMALY></meanElements><tleParameters><EPHEMERIS_TYPE>0</EPHEMERIS_TYPE><CLASSIFICATION_TYPE>U</CLASSIFICATION_TYPE><NORAD_CAT_ID>45132</NORAD_CAT_ID><ELEMENT_SET_NO>999</ELEMENT_SET_NO><REV_AT_EPOCH>22208</REV_AT_EPOCH><BSTAR>.18105E-2</BSTAR><MEAN_MOTION_DOT>.645E-5</MEAN_MOTION_DOT><MEAN_MOTION_DDOT>0</MEAN_MOTION_DDOT></tleParameters></data></segment></body></omm>

</ndm>
