ONEWEB-0012             
1 44057U 19010A   24243.62739862  .00000128  00000+0  30058-3 0  9998
2 44057  87.9168 359.3401 0001149 120.4952 239.6293 13.16596486265303
ONEWEB-0010             
1 44058U 19010B   24243.34874726 -.00000005  00000+0 -47476-4 0  9996
2 44058  87.9163 359.3748 0001846 118.2519 241.8798 13.16595925265314
ONEWEB-0008             
1 44059U 19010C   24243.37409231 -.00000030  00000+0 -11243-3 0  9995
2 44059  87.9167 359.3716 0001943  92.4705 267.6648 13.16593231265433
ONEWEB-0007             
1 44060U 19010D   24243.42061968  .00002111  00000+0  55699-2 0  9996
2 44060  87.9075  29.6935 0000759  89.3609 270.7609 13.15561013265158
ONEWEB-0006             
1 44061U 19010E   24243.42460438  .00000112  00000+0  26431-3 0  9994
2 44061  87.9063  29.6729 0001545 103.4440 256.6862 13.15549201265207
ONEWEB-0011             
1 44062U 19010F   24243.39450602  .00000147  00000+0  35562-3 0  9996
2 44062  87.9063  29.6809 0001921 101.1819 258.9528 13.15544401265199
ONEWEB-0013             
1 45131U 20008A   24243.54984513 -.00000441  00000+0 -13196-2 0  9990
2 45131  87.8682 184.7420 0001658  49.7253 310.4018 13.09383742220260
ONEWEB-0017             
1 45132U 20008B   24243.54696418  .00000645  00000+0  18105-2 0  9994
2 45132  87.8991 166.7244 0001971  83.5113 276.6239 13.10372683222081
